start=new Date('2022-05-03T00:00:00.000Z').valueOf();
sats=[{"ARG_OF_PERICENTER":"38.9971","FILE":"3426306","BSTAR":"-0.02315800000000","CLASSIFICATION_TYPE":"U","ECCENTRICITY":"0.00017510","OBJECT_ID":"2022-005V","MEAN_MOTION_DDOT":"0.0000000000000","OBJECT_NAME":"STARLINK-3392","TLE_LINE1":"1 51123U 22005V   22122.91668981 -.00646796  00000-0 -23158-1 0  9998","TIME_SYSTEM":"UTC","COUNTRY_CODE":"US","REF_FRAME":"TEME","CENTER_NAME":"EARTH","PERIAPSIS":"472.706","SEMIMAJOR_AXIS":"6852.041","TLE_LINE2":"2 51123  53.2173 125.6048 0001751  38.9971  86.6206 15.30639154  3662","GP_ID":"202557899","PERIOD":"94.078","APOAPSIS":"475.106","LAUNCH_DATE":"2022-01-19","MEAN_ANOMALY":"86.6206","EPHEMERIS_TYPE":"0","EPOCH":"2022-05-02T22:00:01.999584","MEAN_ELEMENT_THEORY":"SGP4","RA_OF_ASC_NODE":"125.6048","OBJECT_TYPE":"PAYLOAD","NORAD_CAT_ID":"51123","RCS_SIZE":"LARGE","DECAY_DATE":null,"MEAN_MOTION":"15.30639154","REV_AT_EPOCH":"366","ELEMENT_SET_NO":"999","INCLINATION":"53.2173","SITE":"AFETR","MEAN_MOTION_DOT":"-0.00646796"},{"LAUNCH_DATE":"2022-01-19","MEAN_ANOMALY":"104.7502","EPHEMERIS_TYPE":"0","EPOCH":"2022-05-02T22:00:01.999584","MEAN_ELEMENT_THEORY":"SGP4","TLE_LINE2":"2 51124  53.2154 134.3518 0001727  52.3463 104.7502 15.08834559  3617","GP_ID":"202558149","SEMIMAJOR_AXIS":"6917.897","PERIOD":"95.438","APOAPSIS":"540.957","ELEMENT_SET_NO":"999","DECAY_DATE":null,"REV_AT_EPOCH":"361","INCLINATION":"53.2154","MEAN_MOTION":"15.08834559","SITE":"AFETR","MEAN_MOTION_DOT":"0.00040389","RA_OF_ASC_NODE":"134.3518","OBJECT_TYPE":"PAYLOAD","NORAD_CAT_ID":"51124","RCS_SIZE":"LARGE","BSTAR":"0.00254170000000","CLASSIFICATION_TYPE":"U","ECCENTRICITY":"0.00017270","OBJECT_ID":"2022-005W","MEAN_MOTION_DDOT":"0.0000000000000","ARG_OF_PERICENTER":"52.3463","FILE":"3426306","COUNTRY_CODE":"US","CENTER_NAME":"EARTH","REF_FRAME":"TEME","PERIAPSIS":"538.567","OBJECT_NAME":"STARLINK-3389","TIME_SYSTEM":"UTC","TLE_LINE1":"1 51124U 22005W   22122.91668981  .00040389  00000-0  25417-2 0  9994"},{"TLE_LINE2":"2 51125  53.2142 134.3725 0001778  46.9764 170.1855 15.08839772  3614","GP_ID":"202558395","SEMIMAJOR_AXIS":"6917.881","PERIOD":"95.438","APOAPSIS":"540.976","LAUNCH_DATE":"2022-01-19","MEAN_ANOMALY":"170.1855","EPOCH":"2022-05-02T22:00:01.999584","EPHEMERIS_TYPE":"0","MEAN_ELEMENT_THEORY":"SGP4","RA_OF_ASC_NODE":"134.3725","OBJECT_TYPE":"PAYLOAD","NORAD_CAT_ID":"51125","RCS_SIZE":"LARGE","DECAY_DATE":null,"REV_AT_EPOCH":"361","ELEMENT_SET_NO":"999","INCLINATION":"53.2142","MEAN_MOTION":"15.08839772","MEAN_MOTION_DOT":"-0.00002699","SITE":"AFETR","ARG_OF_PERICENTER":"46.9764","FILE":"3426306","BSTAR":"-0.00015156000000","CLASSIFICATION_TYPE":"U","OBJECT_ID":"2022-005X","ECCENTRICITY":"0.00017780","MEAN_MOTION_DDOT":"0.0000000000000","OBJECT_NAME":"STARLINK-3387","TIME_SYSTEM":"UTC","TLE_LINE1":"1 51125U 22005X   22122.91668981 -.00002699  00000-0 -15156-3 0  9999","CENTER_NAME":"EARTH","COUNTRY_CODE":"US","REF_FRAME":"TEME","PERIAPSIS":"538.516"},{"ARG_OF_PERICENTER":"45.4757","FILE":"3426306","BSTAR":"0.00133660000000","CLASSIFICATION_TYPE":"U","ECCENTRICITY":"0.00017770","OBJECT_ID":"2022-005Y","MEAN_MOTION_DDOT":"0.0000000000000","OBJECT_NAME":"STARLINK-3386","TLE_LINE1":"1 51126U 22005Y   22122.91668981  .00021036  00000-0  13366-2 0  9994","TIME_SYSTEM":"UTC","CENTER_NAME":"EARTH","COUNTRY_CODE":"US","REF_FRAME":"TEME","PERIAPSIS":"538.580","GP_ID":"202557149","TLE_LINE2":"2 51126  53.2164 134.3516 0001777  45.4757 131.6730 15.08819079  3625","SEMIMAJOR_AXIS":"6917.944","PERIOD":"95.439","APOAPSIS":"541.039","LAUNCH_DATE":"2022-01-19","MEAN_ANOMALY":"131.6730","EPHEMERIS_TYPE":"0","EPOCH":"2022-05-02T22:00:01.999584","MEAN_ELEMENT_THEORY":"SGP4","RA_OF_ASC_NODE":"134.3516","OBJECT_TYPE":"PAYLOAD","NORAD_CAT_ID":"51126","RCS_SIZE":"LARGE","DECAY_DATE":null,"ELEMENT_SET_NO":"999","REV_AT_EPOCH":"362","INCLINATION":"53.2164","MEAN_MOTION":"15.08819079","MEAN_MOTION_DOT":"0.00021036","SITE":"AFETR"},{"BSTAR":"0.00249670000000","CLASSIFICATION_TYPE":"U","OBJECT_ID":"2022-005Z","ECCENTRICITY":"0.00018870","MEAN_MOTION_DDOT":"0.0000000000000","ARG_OF_PERICENTER":"51.2758","FILE":"3426306","COUNTRY_CODE":"US","CENTER_NAME":"EARTH","REF_FRAME":"TEME","PERIAPSIS":"538.483","OBJECT_NAME":"STARLINK-3370","TIME_SYSTEM":"UTC","TLE_LINE1":"1 51127U 22005Z   22122.91668981  .00039656  00000-0  24967-2 0  9991","LAUNCH_DATE":"2022-01-19","MEAN_ANOMALY":"145.8314","EPHEMERIS_TYPE":"0","EPOCH":"2022-05-02T22:00:01.999584","MEAN_ELEMENT_THEORY":"SGP4","TLE_LINE2":"2 51127  53.2158 134.3507 0001887  51.2758 145.8314 15.08825977  3626","SEMIMAJOR_AXIS":"6917.923","GP_ID":"202557399","PERIOD":"95.438","APOAPSIS":"541.094","ELEMENT_SET_NO":"999","DECAY_DATE":null,"REV_AT_EPOCH":"362","MEAN_MOTION":"15.08825977","INCLINATION":"53.2158","MEAN_MOTION_DOT":"0.00039656","SITE":"AFETR","RA_OF_ASC_NODE":"134.3507","OBJECT_TYPE":"PAYLOAD","NORAD_CAT_ID":"51127","RCS_SIZE":"LARGE"},{"RCS_SIZE":"LARGE","NORAD_CAT_ID":"51128","OBJECT_TYPE":"PAYLOAD","RA_OF_ASC_NODE":"134.3704","SITE":"AFETR","MEAN_MOTION_DOT":"0.00047471","REV_AT_EPOCH":"362","DECAY_DATE":null,"ELEMENT_SET_NO":"999","INCLINATION":"53.2161","MEAN_MOTION":"15.08823807","APOAPSIS":"541.103","PERIOD":"95.439","SEMIMAJOR_AXIS":"6917.930","TLE_LINE2":"2 51128  53.2161 134.3704 0001891  40.2134 256.9047 15.08823807  3628","GP_ID":"202558650","MEAN_ELEMENT_THEORY":"SGP4","EPHEMERIS_TYPE":"0","EPOCH":"2022-05-02T22:00:01.999584","MEAN_ANOMALY":"256.9047","LAUNCH_DATE":"2022-01-19","TLE_LINE1":"1 51128U 22005AA  22122.91668981  .00047471  00000-0  29821-2 0  9990","TIME_SYSTEM":"UTC","OBJECT_NAME":"STARLINK-3400","PERIAPSIS":"538.487","REF_FRAME":"TEME","COUNTRY_CODE":"US","CENTER_NAME":"EARTH","FILE":"3426306","ARG_OF_PERICENTER":"40.2134","MEAN_MOTION_DDOT":"0.0000000000000","OBJECT_ID":"2022-005AA","ECCENTRICITY":"0.00018910","CLASSIFICATION_TYPE":"U","BSTAR":"0.00298210000000"},{"PERIOD":"95.439","GP_ID":"202558896","TLE_LINE2":"2 51129  53.2192 134.3573 0001975  43.8184 108.0846 15.08820432  3618","SEMIMAJOR_AXIS":"6917.940","APOAPSIS":"541.171","MEAN_ANOMALY":"108.0846","LAUNCH_DATE":"2022-01-19","MEAN_ELEMENT_THEORY":"SGP4","EPHEMERIS_TYPE":"0","EPOCH":"2022-05-02T22:00:01.999584","RA_OF_ASC_NODE":"134.3573","RCS_SIZE":"LARGE","OBJECT_TYPE":"PAYLOAD","NORAD_CAT_ID":"51129","SITE":"AFETR","MEAN_MOTION_DOT":"0.00040593","DECAY_DATE":null,"MEAN_MOTION":"15.08820432","REV_AT_EPOCH":"361","ELEMENT_SET_NO":"999","INCLINATION":"53.2192","ARG_OF_PERICENTER":"43.8184","FILE":"3426306","CLASSIFICATION_TYPE":"U","BSTAR":"0.00255530000000","MEAN_MOTION_DDOT":"0.0000000000000","ECCENTRICITY":"0.00019750","OBJECT_ID":"2022-005AB","TIME_SYSTEM":"UTC","TLE_LINE1":"1 51129U 22005AB  22122.91668981  .00040593  00000-0  25553-2 0  9997","OBJECT_NAME":"STARLINK-3396","REF_FRAME":"TEME","COUNTRY_CODE":"US","CENTER_NAME":"EARTH","PERIAPSIS":"538.439"},{"FILE":"3426306","ARG_OF_PERICENTER":"43.4294","ECCENTRICITY":"0.00018470","OBJECT_ID":"2022-005AC","MEAN_MOTION_DDOT":"0.0000000000000","BSTAR":"-0.00003656700000","CLASSIFICATION_TYPE":"U","OBJECT_NAME":"STARLINK-3395","TLE_LINE1":"1 51130U 22005AC  22122.91668981 -.00000870  00000-0 -36567-4 0  9994","TIME_SYSTEM":"UTC","PERIAPSIS":"538.466","COUNTRY_CODE":"US","REF_FRAME":"TEME","CENTER_NAME":"EARTH","APOAPSIS":"541.021","TLE_LINE2":"2 51130  53.2143 134.3727 0001847  43.4294 193.7065 15.08840668  3621","GP_ID":"202557650","SEMIMAJOR_AXIS":"6917.878","PERIOD":"95.438","EPHEMERIS_TYPE":"0","EPOCH":"2022-05-02T22:00:01.999584","MEAN_ELEMENT_THEORY":"SGP4","LAUNCH_DATE":"2022-01-19","MEAN_ANOMALY":"193.7065","NORAD_CAT_ID":"51130","OBJECT_TYPE":"PAYLOAD","RCS_SIZE":"LARGE","RA_OF_ASC_NODE":"134.3727","INCLINATION":"53.2143","DECAY_DATE":null,"REV_AT_EPOCH":"362","ELEMENT_SET_NO":"999","MEAN_MOTION":"15.08840668","MEAN_MOTION_DOT":"-0.00000870","SITE":"AFETR"},{"INCLINATION":"53.2174","DECAY_DATE":null,"REV_AT_EPOCH":"362","ELEMENT_SET_NO":"999","MEAN_MOTION":"15.08812105","SITE":"AFETR","MEAN_MOTION_DOT":"0.00045369","RA_OF_ASC_NODE":"134.3721","OBJECT_TYPE":"PAYLOAD","NORAD_CAT_ID":"51131","RCS_SIZE":"LARGE","LAUNCH_DATE":"2022-01-19","MEAN_ANOMALY":"233.4890","EPHEMERIS_TYPE":"0","EPOCH":"2022-05-02T22:00:01.999584","MEAN_ELEMENT_THEORY":"SGP4","TLE_LINE2":"2 51131  53.2174 134.3721 0001883  43.6242 233.4890 15.08812105  3628","GP_ID":"202557900","SEMIMAJOR_AXIS":"6917.966","PERIOD":"95.439","APOAPSIS":"541.133","CENTER_NAME":"EARTH","COUNTRY_CODE":"US","REF_FRAME":"TEME","PERIAPSIS":"538.528","OBJECT_NAME":"STARLINK-3388","TIME_SYSTEM":"UTC","TLE_LINE1":"1 51131U 22005AD  22122.91668981  .00045369  00000-0  28526-2 0  9999","BSTAR":"0.00285260000000","CLASSIFICATION_TYPE":"U","OBJECT_ID":"2022-005AD","ECCENTRICITY":"0.00018830","MEAN_MOTION_DDOT":"0.0000000000000","ARG_OF_PERICENTER":"43.6242","FILE":"3426306"},{"MEAN_ANOMALY":"202.5357","LAUNCH_DATE":"2022-01-19","MEAN_ELEMENT_THEORY":"SGP4","EPHEMERIS_TYPE":"0","EPOCH":"2022-05-02T22:00:01.999584","PERIOD":"95.439","TLE_LINE2":"2 51132  53.2166 134.3712 0001990  54.5482 202.5357 15.08814592  3623","SEMIMAJOR_AXIS":"6917.958","GP_ID":"202558150","APOAPSIS":"541.200","SITE":"AFETR","MEAN_MOTION_DOT":"0.00043649","REV_AT_EPOCH":"362","DECAY_DATE":null,"MEAN_MOTION":"15.08814592","ELEMENT_SET_NO":"999","INCLINATION":"53.2166","RA_OF_ASC_NODE":"134.3712","RCS_SIZE":"LARGE","NORAD_CAT_ID":"51132","OBJECT_TYPE":"PAYLOAD","CLASSIFICATION_TYPE":"U","BSTAR":"0.00274560000000","MEAN_MOTION_DDOT":"0.0000000000000","OBJECT_ID":"2022-005AE","ECCENTRICITY":"0.00019900","ARG_OF_PERICENTER":"54.5482","FILE":"3426306","REF_FRAME":"TEME","COUNTRY_CODE":"US","CENTER_NAME":"EARTH","PERIAPSIS":"538.446","TIME_SYSTEM":"UTC","TLE_LINE1":"1 51132U 22005AE  22122.91668981  .00043649  00000-0  27456-2 0  9990","OBJECT_NAME":"STARLINK-3393"}];
